{
    "links": {
        "self": "http://www.neowsapp.com/rest/v1/neo/3666541?api_key=iIulBulltgU6a56xZRHN4H3l9WmuAYTsLGpBGhQ2"
    },
    "id": "3666541",
    "neo_reference_id": "3666541",
    "name": "(2014 FT32)",
    "designation": "2014 FT32",
    "nasa_jpl_url": "http://ssd.jpl.nasa.gov/sbdb.cgi?sstr=3666541",
    "absolute_magnitude_h": 25.4,
    "estimated_diameter": {
        "kilometers": {
            "estimated_diameter_min": 0.022108281,
            "estimated_diameter_max": 0.0494356193
        },
        "meters": {
            "estimated_diameter_min": 22.1082810359,
            "estimated_diameter_max": 49.435619262
        },
        "miles": {
            "estimated_diameter_min": 0.0137374447,
            "estimated_diameter_max": 0.0307178602
        },
        "feet": {
            "estimated_diameter_min": 72.5337327539,
            "estimated_diameter_max": 162.1903570994
        }
    },
    "is_potentially_hazardous_asteroid": false,
    "close_approach_data": [
        {
            "close_approach_date": "2014-03-16",
            "close_approach_date_full": "2014-Mar-16 09:54",
            "epoch_date_close_approach": 1394963640000,
            "relative_velocity": {
                "kilometers_per_second": "6.2925113277",
                "kilometers_per_hour": "22653.0407797745",
                "miles_per_hour": "14075.718588966"
            },
            "miss_distance": {
                "astronomical": "0.0669689601",
                "lunar": "26.0509254789",
                "kilometers": "10018413.787074987",
                "miles": "6225153.6630773406"
            },
            "orbiting_body": "Earth"
        }
    ],
    "orbital_data": {
        "orbit_id": "8",
        "orbit_determination_date": "2017-04-06 08:41:57",
        "first_observation_date": "2014-03-24",
        "last_observation_date": "2014-04-09",
        "data_arc_in_days": 16,
        "observations_used": 24,
        "orbit_uncertainty": "8",
        "minimum_orbit_intersection": ".0666566",
        "jupiter_tisserand_invariant": "3.395",
        "epoch_osculation": "2456742.5",
        "eccentricity": ".5354799711062262",
        "semi_major_axis": "2.283336548117195",
        "inclination": "3.811112413112674",
        "ascending_node_longitude": "171.911435002408",
        "orbital_period": "1260.240171836596",
        "perihelion_distance": "1.060655559305609",
        "perihelion_argument": ".02101488797886478",
        "aphelion_distance": "3.50601753692878",
        "perihelion_time": "2456730.015867341534",
        "mean_anomaly": "3.566215279820879",
        "mean_motion": ".2856598353592857",
        "equinox": "J2000",
        "orbit_class": {
            "orbit_class_type": "AMO",
            "orbit_class_description": "Near-Earth asteroid orbits similar to that of 1221 Amor",
            "orbit_class_range": "1.017 AU < q (perihelion) < 1.3 AU"
        }
    },
    "is_sentry_object": false
}